{
  "type": "FeatureCollection",
  "features": [
    {
      "type": "Feature",
      "properties": {
        "norad_id": 66909,
        "name": "SILVERSAT",
        "group": "stations",
        "lat": -46.84590490528345,
        "lon": 16.952056503837717,
        "alt_km": 408.56662480476734,
        "timestamp": "2025-12-26T08:37:53.326649+00:00",
        "meta_object_name": "SILVERSAT",
        "meta_object_id": "1998-067XV",
        "meta_epoch": "2025-12-24T12:08:54.950784",
        "meta_mean_motion": 15.53202951,
        "meta_eccentricity": 0.00038249,
        "meta_inclination": 51.631,
        "meta_ra_of_asc_node": 83.8633,
        "meta_arg_of_pericenter": 300.8028,
        "meta_mean_anomaly": 59.2585,
        "meta_ephemeris_type": 0,
        "meta_classification_type": "U",
        "meta_norad_cat_id": 66909,
        "meta_element_set_no": 999,
        "meta_rev_at_epoch": 344,
        "meta_bstar": 0.0011617624,
        "meta_mean_motion_dot": 0.00074602,
        "meta_mean_motion_ddot": 0,
        "tle_line1": "1 66909U 98067XV  25358.50619156  .00074602  00000+0  11618-2 0  9993",
        "tle_line2": "2 66909  51.6310  83.8633 0003824 300.8028  59.2585 15.53202951  3445"
      },
      "geometry": {
        "type": "Point",
        "coordinates": [
          16.952056503837717,
          -46.84590490528345
        ]
      }
    },
    {
      "type": "Feature",
      "properties": {
        "norad_id": 66910,
        "name": "1998-067XW",
        "group": "stations",
        "lat": -42.56634406015416,
        "lon": 27.9195641661658,
        "alt_km": 408.71546363988546,
        "timestamp": "2025-12-26T08:37:53.326659+00:00",
        "meta_object_name": "1998-067XW",
        "meta_object_id": "1998-067XW",
        "meta_epoch": "2025-12-25T05:05:39.017760",
        "meta_mean_motion": 15.53228928,
        "meta_eccentricity": 0.0003837,
        "meta_inclination": 51.6308,
        "meta_ra_of_asc_node": 80.3284,
        "meta_arg_of_pericenter": 278.3824,
        "meta_mean_anomaly": 81.6731,
        "meta_ephemeris_type": 0,
        "meta_classification_type": "U",
        "meta_norad_cat_id": 66910,
        "meta_element_set_no": 999,
        "meta_rev_at_epoch": 355,
        "meta_bstar": 0.0010169,
        "meta_mean_motion_dot": 0.00065225,
        "meta_mean_motion_ddot": 0,
        "tle_line1": "1 66910U 98067XW  25359.21225715  .00065225  00000+0  10169-2 0  9999",
        "tle_line2": "2 66910  51.6308  80.3284 0003837 278.3824  81.6731 15.53228928  3551"
      },
      "geometry": {
        "type": "Point",
        "coordinates": [
          27.9195641661658,
          -42.56634406015416
        ]
      }
    },
    {
      "type": "Feature",
      "properties": {
        "norad_id": 66911,
        "name": "1998-067XX",
        "group": "stations",
        "lat": -27.33709775360538,
        "lon": 50.38415956411083,
        "alt_km": 406.79397769302614,
        "timestamp": "2025-12-26T08:37:53.326669+00:00",
        "meta_object_name": "1998-067XX",
        "meta_object_id": "1998-067XX",
        "meta_epoch": "2025-12-25T14:15:47.536416",
        "meta_mean_motion": 15.53814599,
        "meta_eccentricity": 0.000352,
        "meta_inclination": 51.6302,
        "meta_ra_of_asc_node": 78.3793,
        "meta_arg_of_pericenter": 286.8967,
        "meta_mean_anomaly": 73.1637,
        "meta_ephemeris_type": 0,
        "meta_classification_type": "U",
        "meta_norad_cat_id": 66911,
        "meta_element_set_no": 999,
        "meta_rev_at_epoch": 360,
        "meta_bstar": 0.0011507,
        "meta_mean_motion_dot": 0.00075561,
        "meta_mean_motion_ddot": 0,
        "tle_line1": "1 66911U 98067XX  25359.59430019  .00075561  00000+0  11507-2 0  9997",
        "tle_line2": "2 66911  51.6302  78.3793 0003520 286.8967  73.1637 15.53814599  3601"
      },
      "geometry": {
        "type": "Point",
        "coordinates": [
          50.38415956411083,
          -27.33709775360538
        ]
      }
    },
    {
      "type": "Feature",
      "properties": {
        "norad_id": 66912,
        "name": "1998-067XY",
        "group": "stations",
        "lat": -45.53766474593325,
        "lon": -51.442918084162294,
        "alt_km": 412.4043290956861,
        "timestamp": "2025-12-26T08:37:53.326679+00:00",
        "meta_object_name": "1998-067XY",
        "meta_object_id": "1998-067XY",
        "meta_epoch": "2025-12-25T14:35:00.692160",
        "meta_mean_motion": 15.52392127,
        "meta_eccentricity": 0.0003813,
        "meta_inclination": 51.6317,
        "meta_ra_of_asc_node": 78.4687,
        "meta_arg_of_pericenter": 296.0372,
        "meta_mean_anomaly": 64.0225,
        "meta_ephemeris_type": 0,
        "meta_classification_type": "U",
        "meta_norad_cat_id": 66912,
        "meta_element_set_no": 999,
        "meta_rev_at_epoch": 360,
        "meta_bstar": 0.0008056,
        "meta_mean_motion_dot": 0.00049931,
        "meta_mean_motion_ddot": 0,
        "tle_line1": "1 66912U 98067XY  25359.60764690  .00049931  00000+0  80560-3 0  9993",
        "tle_line2": "2 66912  51.6317  78.4687 0003813 296.0372  64.0225 15.52392127  3608"
      },
      "geometry": {
        "type": "Point",
        "coordinates": [
          -51.442918084162294,
          -45.53766474593325
        ]
      }
    }
  ]
}